{
  "type": "FeatureCollection",
  "features": [
    {
      "type": "Feature",
      "properties": {
        "norad_id": 40730,
        "name": "GPS BIIF-10 (PRN 08)",
        "group": "gps-ops",
        "lat": 49.68952355531651,
        "lon": 35.789991815521624,
        "alt_km": 20135.131371728265,
        "timestamp": "2025-12-25T20:42:38.946755+00:00",
        "meta_object_name": "GPS BIIF-10 (PRN 08)",
        "meta_object_id": "2015-033A",
        "meta_epoch": "2025-12-24T17:11:33.292320",
        "meta_mean_motion": 2.00564999,
        "meta_eccentricity": 0.0111668,
        "meta_inclination": 54.1203,
        "meta_ra_of_asc_node": 274.2801,
        "meta_arg_of_pericenter": 27.125,
        "meta_mean_anomaly": 333.5048,
        "meta_ephemeris_type": 0,
        "meta_classification_type": "U",
        "meta_norad_cat_id": 40730,
        "meta_element_set_no": 999,
        "meta_rev_at_epoch": 7649,
        "meta_bstar": 0,
        "meta_mean_motion_dot": -1.6e-07,
        "meta_mean_motion_ddot": 0,
        "tle_line1": "1 40730U 15033A   25358.71635755 -.00000016  00000+0  00000+0 0  9994",
        "tle_line2": "2 40730  54.1203 274.2801 0111668  27.1250 333.5048  2.00564999 76491"
      },
      "geometry": {
        "type": "Point",
        "coordinates": [
          35.789991815521624,
          49.68952355531651
        ]
      }
    },
    {
      "type": "Feature",
      "properties": {
        "norad_id": 41019,
        "name": "GPS BIIF-11 (PRN 10)",
        "group": "gps-ops",
        "lat": 48.66692322250144,
        "lon": 85.49451827012568,
        "alt_km": 20463.4254533392,
        "timestamp": "2025-12-25T20:42:38.946767+00:00",
        "meta_object_name": "GPS BIIF-11 (PRN 10)",
        "meta_object_id": "2015-062A",
        "meta_epoch": "2025-12-23T18:41:09.894336",
        "meta_mean_motion": 2.00567076,
        "meta_eccentricity": 0.0111091,
        "meta_inclination": 56.8401,
        "meta_ra_of_asc_node": 37.5754,
        "meta_arg_of_pericenter": 230.2279,
        "meta_mean_anomaly": 128.8532,
        "meta_ephemeris_type": 0,
        "meta_classification_type": "U",
        "meta_norad_cat_id": 41019,
        "meta_element_set_no": 999,
        "meta_rev_at_epoch": 7431,
        "meta_bstar": 0,
        "meta_mean_motion_dot": -4.7e-07,
        "meta_mean_motion_ddot": 0,
        "tle_line1": "1 41019U 15062A   25357.77858674 -.00000047  00000+0  00000+0 0  9993",
        "tle_line2": "2 41019  56.8401  37.5754 0111091 230.2279 128.8532  2.00567076 74317"
      },
      "geometry": {
        "type": "Point",
        "coordinates": [
          85.49451827012568,
          48.66692322250144
        ]
      }
    },
    {
      "type": "Feature",
      "properties": {
        "norad_id": 41328,
        "name": "GPS BIIF-12 (PRN 32)",
        "group": "gps-ops",
        "lat": 4.246918289366227,
        "lon": 99.27366145683486,
        "alt_km": 20308.71791161974,
        "timestamp": "2025-12-25T20:42:38.946778+00:00",
        "meta_object_name": "GPS BIIF-12 (PRN 32)",
        "meta_object_id": "2016-007A",
        "meta_epoch": "2025-12-24T08:38:21.777792",
        "meta_mean_motion": 2.00560136,
        "meta_eccentricity": 0.00927395,
        "meta_inclination": 55.4125,
        "meta_ra_of_asc_node": 96.3958,
        "meta_arg_of_pericenter": 243.8734,
        "meta_mean_anomaly": 115.1833,
        "meta_ephemeris_type": 0,
        "meta_classification_type": "U",
        "meta_norad_cat_id": 41328,
        "meta_element_set_no": 999,
        "meta_rev_at_epoch": 7233,
        "meta_bstar": 0,
        "meta_mean_motion_dot": 1.2e-07,
        "meta_mean_motion_ddot": 0,
        "tle_line1": "1 41328U 16007A   25358.35997428  .00000012  00000+0  00000+0 0  9993",
        "tle_line2": "2 41328  55.4125  96.3958 0092739 243.8734 115.1833  2.00560136 72333"
      },
      "geometry": {
        "type": "Point",
        "coordinates": [
          99.27366145683486,
          4.246918289366227
        ]
      }
    },
    {
      "type": "Feature",
      "properties": {
        "norad_id": 43873,
        "name": "GPS BIII-1  (PRN 04)",
        "group": "gps-ops",
        "lat": -54.080121652623845,
        "lon": -9.976174333883415,
        "alt_km": 20143.840147951327,
        "timestamp": "2025-12-25T20:42:38.946789+00:00",
        "meta_object_name": "GPS BIII-1  (PRN 04)",
        "meta_object_id": "2018-109A",
        "meta_epoch": "2025-12-24T12:17:00.757248",
        "meta_mean_motion": 2.00553945,
        "meta_eccentricity": 0.00376159,
        "meta_inclination": 55.5731,
        "meta_ra_of_asc_node": 99.0827,
        "meta_arg_of_pericenter": 195.5593,
        "meta_mean_anomaly": 167.4766,
        "meta_ephemeris_type": 0,
        "meta_classification_type": "U",
        "meta_norad_cat_id": 43873,
        "meta_element_set_no": 999,
        "meta_rev_at_epoch": 5157,
        "meta_bstar": 0,
        "meta_mean_motion_dot": 1.7e-07,
        "meta_mean_motion_ddot": 0,
        "tle_line1": "1 43873U 18109A   25358.51181432  .00000017  00000+0  00000+0 0  9998",
        "tle_line2": "2 43873  55.5731  99.0827 0037615 195.5593 167.4766  2.00553945 51575"
      },
      "geometry": {
        "type": "Point",
        "coordinates": [
          -9.976174333883415,
          -54.080121652623845
        ]
      }
    },
    {
      "type": "Feature",
      "properties": {
        "norad_id": 44506,
        "name": "GPS BIII-2  (PRN 18)",
        "group": "gps-ops",
        "lat": 19.878879271125932,
        "lon": 143.7448872466085,
        "alt_km": 20067.15902924481,
        "timestamp": "2025-12-25T20:42:38.946802+00:00",
        "meta_object_name": "GPS BIII-2  (PRN 18)",
        "meta_object_id": "2019-056A",
        "meta_epoch": "2025-12-25T04:27:47.883168",
        "meta_mean_motion": 2.00566525,
        "meta_eccentricity": 0.00577677,
        "meta_inclination": 55.7168,
        "meta_ra_of_asc_node": 338.0593,
        "meta_arg_of_pericenter": 198.6492,
        "meta_mean_anomaly": 188.635,
        "meta_ephemeris_type": 0,
        "meta_classification_type": "U",
        "meta_norad_cat_id": 44506,
        "meta_element_set_no": 999,
        "meta_rev_at_epoch": 4658,
        "meta_bstar": 0,
        "meta_mean_motion_dot": -5.9e-07,
        "meta_mean_motion_ddot": 0,
        "tle_line1": "1 44506U 19056A   25359.18597087 -.00000059  00000+0  00000+0 0  9992",
        "tle_line2": "2 44506  55.7168 338.0593 0057767 198.6492 188.6350  2.00566525 46580"
      },
      "geometry": {
        "type": "Point",
        "coordinates": [
          143.7448872466085,
          19.878879271125932
        ]
      }
    },
    {
      "type": "Feature",
      "properties": {
        "norad_id": 45854,
        "name": "GPS BIII-3  (PRN 23)",
        "group": "gps-ops",
        "lat": 55.441691837561095,
        "lon": 142.12260408415105,
        "alt_km": 20215.85024385425,
        "timestamp": "2025-12-25T20:42:38.946819+00:00",
        "meta_object_name": "GPS BIII-3  (PRN 23)",
        "meta_object_id": "2020-041A",
        "meta_epoch": "2025-12-24T07:36:15.586848",
        "meta_mean_motion": 2.00561688,
        "meta_eccentricity": 0.00606528,
        "meta_inclination": 56.5546,
        "meta_ra_of_asc_node": 35.7353,
        "meta_arg_of_pericenter": 203.7393,
        "meta_mean_anomaly": 219.8521,
        "meta_ephemeris_type": 0,
        "meta_classification_type": "U",
        "meta_norad_cat_id": 45854,
        "meta_element_set_no": 999,
        "meta_rev_at_epoch": 4053,
        "meta_bstar": 0,
        "meta_mean_motion_dot": -4.9e-07,
        "meta_mean_motion_ddot": 0,
        "tle_line1": "1 45854U 20041A   25358.31684707 -.00000049  00000+0  00000+0 0  9994",
        "tle_line2": "2 45854  56.5546  35.7353 0060652 203.7393 219.8521  2.00561688 40537"
      },
      "geometry": {
        "type": "Point",
        "coordinates": [
          142.12260408415105,
          55.441691837561095
        ]
      }
    },
    {
      "type": "Feature",
      "properties": {
        "norad_id": 46826,
        "name": "GPS BIII-4  (PRN 14)",
        "group": "gps-ops",
        "lat": 49.76727312037894,
        "lon": -82.99403872925554,
        "alt_km": 20292.92767224419,
        "timestamp": "2025-12-25T20:42:38.946830+00:00",
        "meta_object_name": "GPS BIII-4  (PRN 14)",
        "meta_object_id": "2020-078A",
        "meta_epoch": "2025-12-16T01:06:13.902336",
        "meta_mean_motion": 2.00566891,
        "meta_eccentricity": 0.0064754,
        "meta_inclination": 54.0144,
        "meta_ra_of_asc_node": 218.2068,
        "meta_arg_of_pericenter": 203.3802,
        "meta_mean_anomaly": 339.3962,
        "meta_ephemeris_type": 0,
        "meta_classification_type": "U",
        "meta_norad_cat_id": 46826,
        "meta_element_set_no": 999,
        "meta_rev_at_epoch": 3783,
        "meta_bstar": 0,
        "meta_mean_motion_dot": 6.7e-07,
        "meta_mean_motion_ddot": 0,
        "tle_line1": "1 46826U 20078A   25350.04599424  .00000067  00000+0  00000+0 0  9996",
        "tle_line2": "2 46826  54.0144 218.2068 0064754 203.3802 339.3962  2.00566891 37830"
      },
      "geometry": {
        "type": "Point",
        "coordinates": [
          -82.99403872925554,
          49.76727312037894
        ]
      }
    }
  ]
}